332P-B/Ikeya-Murakami,e,9.3805,3.8028,152.3711,3.082329,0.1821317,0.48970701,359.9699,03/17.0/2016,2000,g 19.0,4.0
# From MPEC 2016-K18
332P-C/Ikeya-Murakami,e,9.3794,3.7828,152.2870,3.087454,0.1816784,0.48930995,111.1507,04/22.0/2023,2000,g 16.5,4.0
# From MPEC 2016-ED0
332P-D/Ikeya-Murakami,e,9.3761,3.7923,152.4393,3.081138,0.1822373,0.48977814,359.9486,03/17.0/2016,2000,g 19.0,4.0
# From MPEC 2016-ED0
332P-E/Ikeya-Murakami,e,9.3774,3.8228,152.2825,3.079877,0.1823493,0.48922008,359.9889,03/17.0/2016,2000,g 21.0,4.0
# From MPEC 2016-ED0
332P-F/Ikeya-Murakami,e,9.5293,3.4757,152.8203,3.163214,0.1751908,0.49918860,359.8501,03/17.0/2016,2000,g 21.0,4.0
# From MPEC 2016-ED0
332P-G/Ikeya-Murakami,e,9.2523,3.6955,154.4000,3.050519,0.1849880,0.49200362,359.9006,03/19.0/2016,2000,g 19.0,4.0
# From MPC100285
332P-H/Ikeya-Murakami,e,9.3799,3.7826,152.2876,3.087637,0.1816623,0.48934538,111.0757,04/22.0/2023,2000,g 19.0,4.0
# From MPEC 2016-ED0
332P-I/Ikeya-Murakami,e,9.3791,3.8048,152.3297,3.081767,0.1821815,0.48955490,359.9360,03/17.0/2016,2000,g 20.5,2.0
# From MPEC 2016-EI8
332P-J/Ikeya-Murakami,e,9.4296,3.6729,152.7712,3.115165,0.1792596,0.49429435,359.8613,03/17.0/2016,2000,g 20.5,2.0
# From MPEC 2020-L06
333P/LINEAR,e,132.0139,115.6740,25.9883,4.221506,0.1136326,0.73638148,293.2695,04/22.0/2023,2000,g 15.0,4.0
# From MPC115888
334P/NEAT,e,20.3904,90.5613,90.0760,6.834619,0.0551611,0.35062198,118.5174,04/22.0/2023,2000,g 10.5,4.0
# From MPEC 2021-U31
335P/Gibbs,e,7.2928,330.8419,162.3048,3.578493,0.1455975,0.54626541,36.8350,04/22.0/2023,2000,g 17.0,4.0
# From MPC105244
336P/McNaught,e,17.8245,298.2741,308.6652,5.036632,0.0871954,0.44385347,198.2613,04/22.0/2023,2000,g 13.5,4.0
# From MPEC 2022-YN2
337P/WISE,e,15.3677,106.0172,161.1353,3.288921,0.1652433,0.49697943,48.6964,04/22.0/2023,2000,g 17.0,4.0
# From MPEC 2022-K19
338P/McNaught,e,25.3862,9.7979,4.5214,3.893069,0.1283116,0.41213593,299.8403,04/22.0/2023,2000,g 12.0,4.0
# From MPC101101
339P/Gibbs,e,5.7332,172.7230,27.4654,3.700464,0.1384586,0.63565022,341.8685,04/22.0/2023,2000,g 17.0,4.0
# From MPC133426
340P/Boattini,e,2.0781,291.7047,35.9844,4.249887,0.1124962,0.28065429,263.2767,04/22.0/2023,2000,g 14.3,4.0
# From MPEC 2022-K19
341P/Gibbs,e,3.7971,29.9678,312.2824,4.290042,0.1109205,0.41568439,278.8780,04/22.0/2023,2000,g 12.5,4.0
# From MPC101101
342P/SOHO,e,11.6667,27.7097,73.2498,3.041233,0.1858359,0.98281906,0.0000,10/19.2879/2021,2000,g  9.0,4.0
# From MPEC 2022-K19
343P/NEAT-LONEOS,e,5.5924,257.0969,137.5069,5.457800,0.0772997,0.58522150,175.5771,04/22.0/2023,2000,g 14.0,4.0
# From MPC109148
344P/Read,e,3.4959,273.1128,140.4693,4.860318,0.0919829,0.42337788,217.0204,04/22.0/2023,2000,g 13.0,4.0
# From MPEC 2022-K19
345P/LINEAR,e,2.7275,154.5130,196.6379,4.033916,0.1216505,0.22146925,299.6138,04/22.0/2023,2000,g 12.0,4.0
# From MPEC 2022-K19
346P/Catalina,e,22.2068,102.4518,335.9706,4.472657,0.1041971,0.50341326,235.2282,04/22.0/2023,2000,g 14.0,4.0
# From MPEC 2022-K19
347P/PANSTARRS,e,11.7539,261.0193,98.4336,3.604708,0.1440121,0.38622207,347.1726,04/22.0/2023,2000,g 15.0,4.0
# From MPEC 2022-ED3
348P/PANSTARRS,e,17.7368,312.9338,135.6938,3.151841,0.1761399,0.30713637,76.3323,04/22.0/2023,2000,g 14.0,4.0
# From MPEC 2022-K19
349P/Lemmon,e,5.4896,331.7566,255.8580,3.576921,0.1456934,0.29841432,301.5225,04/22.0/2023,2000,g 14.0,4.0
# From MPC111775
350P/McNaught,e,7.3647,65.2942,139.7198,4.083633,0.1194357,0.09368254,233.4893,04/22.0/2023,2000,g 14.0,4.0
# From MPC105244
351P/Wiegert-PANSTARRS,e,12.7779,283.4146,352.6578,4.439685,0.1053600,0.29500278,285.7621,04/22.0/2023,2000,g 12.5,4.0
# From MPC110086
352P/Skiff,e,21.0136,28.0007,309.3720,6.646702,0.0575168,0.61760185,122.4727,04/22.0/2023,2000,g 11.5,4.0
# From MPEC 2020-AA5
353P/McNaught,e,28.4090,121.5155,230.4936,4.170600,0.1157194,0.47030891,225.0984,04/22.0/2023,2000,g 14.5,4.0
# From MPC105545
354P/LINEAR,e,5.2508,320.0979,132.6324,2.290801,0.2842647,0.12496037,310.3255,04/22.0/2023,2000,g 15.5,4.0
# From MPEC 2023-CD7
355P/LINEAR-NEAT,e,11.0470,51.4336,336.3219,3.468959,0.1525476,0.50789577,307.3082,04/22.0/2023,2000,g 15.5,2.0
# From MPEC 2022-F14
356P/WISE,e,9.6374,160.7895,226.0784,4.156336,0.1163156,0.35597662,226.6262,04/22.0/2023,2000,g 14.0,4.0
# From MPC114609
357P/Hill,e,6.3164,44.5580,1.4176,4.457481,0.1047297,0.43589464,187.1165,04/22.0/2023,2000,g 15.5,4.0
# From MPEC 2020-HN5
358P/PANSTARRS,e,11.0600,85.7000,299.7664,3.147102,0.1765378,0.23908984,324.1441,04/22.0/2023,2000,g 18.0,4.0
# From MPC110086
359P/LONEOS,e,10.2645,149.7480,200.2921,4.640441,0.0985973,0.32401755,203.8390,04/22.0/2023,2000,g 13.5,4.0
# From MPC108599
360P/WISE,e,24.1106,2.1894,354.2172,3.699357,0.1385207,0.49929385,286.4960,04/22.0/2023,2000,g 19.5,6.0
# From MPEC 2023-CD7
361P/Spacewatch,e,13.9035,203.2593,219.0107,4.934844,0.0899071,0.43917204,157.5915,04/22.0/2023,2000,g 12.0,4.0
# From MPEC 2017-V13
362P/,e,15.5569,192.5451,53.5661,3.972499,0.1244825,0.27870847,303.3004,04/22.0/2023,2000,g 12.9,2.0
# From MPC114609
363P/Lemmon,e,5.4016,146.8677,340.8751,3.570071,0.1461130,0.51957250,276.5356,04/22.0/2023,2000,g 17.5,4.0
# From MPEC 2023-HD1
364P/PANSTARRS,e,12.1375,46.1480,212.0200,2.879722,0.2016871,0.72174872,355.5592,04/22.0/2023,2000,g 15.8,4.0
# From MPC111775
365P/PANSTARRS,e,9.8442,86.3075,67.7609,3.156511,0.1757491,0.58134595,330.0575,04/22.0/2023,2000,g 17.0,4.0
# From MPC114610
366P/Spacewatch,e,8.8569,70.7628,153.0248,3.497276,0.1506986,0.34810297,262.0136,04/22.0/2023,2000,g 15.0,4.0
# From MPC112395
367P/Catalina,e,8.4592,58.7173,172.7665,3.508302,0.1499888,0.27972955,265.3504,04/22.0/2023,2000,g 17.5,2.0
# From MPC114610
368P/NEAT,e,15.4832,257.8319,118.9493,5.530276,0.0757851,0.62669315,127.2586,04/22.0/2023,2000,g 14.0,4.0
# From MPC114610
369P/Hill,e,10.3247,47.2924,13.1612,4.381194,0.1074770,0.55554010,177.1364,04/22.0/2023,2000,g 15.0,4.0
# From MPEC 2021-F20
370P/NEAT,e,19.4275,55.0657,356.7186,6.435244,0.0603749,0.61541985,107.2118,04/22.0/2023,2000,g 13.0,4.0
# From MPC114610
371P/LINEAR-Skiff,e,17.3869,67.2371,308.5761,4.180643,0.1153027,0.47708584,191.2234,04/22.0/2023,2000,g 16.0,4.0
# From MPEC 2020-K19
372P/McNaught,e,9.5054,325.8148,27.6742,4.508663,0.1029514,0.15235329,168.8942,04/22.0/2023,2000,g 13.5,4.0
# From MPEC 2021-F20
373P/Rinner,e,13.7704,231.9655,221.0038,3.800381,0.1330342,0.39306609,196.0476,04/22.0/2023,2000,g 14.5,4.0
# From MPC114610
374P/Larson,e,10.7660,7.9121,51.4587,4.971388,0.0889176,0.46349462,138.7802,04/22.0/2023,2000,g 14.0,4.0
# From MPEC 2021-F20
375P/Hill,e,17.3621,359.9375,119.3640,5.549241,0.0753969,0.65912391,119.3446,04/22.0/2023,2000,g 16.0,4.0
# From MPEC 2022-K19
376P/LONEOS,e,1.1690,313.3232,285.1176,5.763333,0.0712350,0.51549841,93.3052,04/22.0/2023,2000,g 12.5,4.0
# From MPEC 2022-N37
377P/Scotti,e,9.0241,226.0651,354.9896,6.702329,0.0568022,0.25127401,57.6503,04/22.0/2023,2000,g  9.5,4.0
# From MPEC 2023-D41
378P/McNaught,e,19.0737,94.0184,193.5699,6.318917,0.0620498,0.46702180,56.9998,04/22.0/2023,2000,g 12.0,4.0
# From MPC115889
379P/Spacewatch,e,12.4501,183.8295,30.5636,3.503729,0.1502825,0.34563530,203.7483,04/22.0/2023,2000,g 15.0,4.0
# From MPEC 2023-C45
380P/PANSTARRS,e,8.0568,130.3661,86.8369,4.409779,0.1064336,0.34325486,152.7498,04/22.0/2023,2000,g 12.5,4.0
# From MPEC 2021-J28
381P/LINEAR-Spacewatch,e,28.3758,173.7646,173.3080,7.138335,0.0516784,0.68169409,67.3321,04/22.0/2023,2000,g 17.5,2.0
# From MPEC 2022-Y15
382P/Larson,e,8.4001,173.4999,164.8080,6.118394,0.0651250,0.28401711,31.4925,04/22.0/2023,2000,g  8.0,4.0
# From MPEC 2022-OB6
383P/Christensen,e,12.3265,207.8190,133.7871,3.547214,0.1475275,0.59926402,187.8675,04/22.0/2023,2000,g 18.0,4.0
# From MPEC 2022-OB6
384P/Kowalski,e,7.2835,354.2192,37.6560,2.899619,0.1996148,0.61623950,256.9735,04/22.0/2023,2000,g 19.5,4.0
# From MPEC 2021-F20
385P/Hill,e,16.8301,357.0573,44.3602,4.288577,0.1109773,0.40209148,145.8315,04/22.0/2023,2000,g 13.0,4.0
# From MPEC 2021-L04
386P/PANSTARRS,e,15.2331,134.9303,353.1018,4.052258,0.1208254,0.41651575,117.9141,04/22.0/2023,2000,g 14.5,4.0
# From MPEC 2021-J28
387P/Boattini,e,8.9332,259.2412,162.8123,4.797007,0.0938099,0.73685912,124.0947,04/22.0/2023,2000,g 15.0,4.0
# From MPEC 2021-S45
388P/Gibbs,e,23.8896,37.0483,42.2923,5.240983,0.0821457,0.61883526,112.3356,04/22.0/2023,2000,g 13.0,4.0
# From MPEC 2022-OB6
389P/Siding Spring,e,160.0859,218.8819,249.3974,5.633506,0.0737116,0.70454372,89.1347,04/22.0/2023,2000,g 16.0,4.0
# From MPEC 2022-OB6
390P/Gibbs,e,18.5539,152.2662,232.4112,5.811201,0.0703567,0.70742485,79.1685,04/22.0/2023,2000,g 12.0,4.0
# From MPEC 2021-F20
391P/Kowalski,e,21.2646,124.7382,187.3351,4.685108,0.0971907,0.11953581,180.4882,04/22.0/2023,2000,g  8.0,4.0
# From MPEC 2021-J28
392P/LINEAR,e,4.9318,24.8849,71.8687,6.140603,0.0647720,0.68330999,72.2703,04/22.0/2023,2000,g 14.5,4.0
# From MPEC 2021-BE3
393P/Spacewatch-Hill,e,16.7876,36.3917,328.9197,4.793588,0.0939102,0.12045060,119.2001,04/22.0/2023,2000,g 11.0,4.0
# From MPEC 2020-KB7
394P/PANSTARRS,e,8.5297,98.1265,54.4398,4.329845,0.1093945,0.36746823,135.6005,04/22.0/2023,2000,g 16.0,2.4
# From MPEC 2023-C45
395P/Catalina-NEAT,e,3.3736,222.0395,93.0089,6.805597,0.0555143,0.40082264,25.7917,04/22.0/2023,2000,g 10.0,4.0
# From MPEC 2020-KB7
396P/,e,5.4373,136.6459,8.3835,6.804821,0.0555238,0.41587344,74.0442,04/22.0/2023,2000,g 12.0,4.0
# From MPEC 2022-OB6
397P/Lemmon,e,10.9290,8.1954,14.5399,3.830317,0.1314777,0.40525955,136.2207,04/22.0/2023,2000,g 12.0,4.0
# From MPEC 2021-L04
398P/Boattini,e,11.0179,127.4338,320.2085,3.126407,0.1782936,0.58316726,150.8318,04/22.0/2023,2000,g 15.5,4.0
# From MPEC 2022-M88
399P/PANSTARRS,e,13.3218,207.1310,214.3580,3.792284,0.1334605,0.44732450,93.3069,04/22.0/2023,2000,g 14.0,4.0
# From MPEC 2022-ED3
400P/PANSTARRS,e,10.9297,176.3902,238.8363,3.561726,0.1466268,0.40960657,117.3788,04/22.0/2023,2000,g 15.5,2.8
# From MPEC 2022-K19
